INTELSAT 902 (IS-902)   
1 26900U 01039A   26204.08169595 -.00000284  00000+0  00000+0 0  9990
2 26900   6.2041  71.3386 0004265  50.8048 157.9936  1.00272197 91056
INTELSAT 904 (IS-904)   
1 27380U 02007A   26204.39225603 -.00000227  00000+0  00000+0 0  9993
2 27380   7.0075  68.7452 0005231  30.1150 312.0102  1.00273502 52123
DIRECTV 5 (TEMPO 1)     
1 27426U 02023A   26204.59050508 -.00000057  00000+0  00000+0 0  9995
2 27426   4.9679  74.8528 0003234  45.6338 283.3049  1.00272299 88482
INTELSAT 905 (IS-905)   
1 27438U 02027A   26204.72774112  .00000092  00000+0  00000+0 0  9999
2 27438   6.8423  69.3541 0003614  52.3431 304.5410  1.00273211 51728
GALAXY 3C (G-3C)        
1 27445U 02030A   26204.59353845 -.00000151  00000+0  00000+0 0  9999
2 27445   3.8256  77.5073 0001871  29.3929 313.2499  1.00271496 46852
INTELSAT 906 (IS-906)   
1 27513U 02041A   26204.76755125  .00000012  00000+0  00000+0 0  9998
2 27513   5.8917  72.4644 0003379  33.2832 176.2164  1.00271649 87394
GALAXY 13 (HORIZONS-1)  
1 27954U 03044A   26204.72514111  .00000136  00000+0  00000+0 0  9992
2 27954   1.5103  83.3858 0002091  34.6540 294.4683  1.00268996 46937
INTELSAT 10-02          
1 28358U 04022A   26204.88030727 -.00000006  00000+0  00000+0 0  9998
2 28358   0.0602 254.6407 0000205 255.6353 107.2422  1.00272863 80926
DIRECTV 8               
1 28659U 05019A   26204.60692544  .00000006  00000+0  00000+0 0  9999
2 28659   0.0139  81.0366 0003217  44.1548 275.5869  1.00271272 77433
GALAXY 28 (G-28)        
1 28702U 05022A   26204.82083083 -.00000199  00000+0  00000+0 0  9992
2 28702   3.3895  78.4762 0002309  43.6470  87.8248  1.00271518 52347
GALAXY 16 (G-16)        
1 29236U 06023A   26204.63465059 -.00000122  00000+0  00000+0 0  9999
2 29236   0.0273 125.9496 0002852 357.6002 307.2820  1.00272765 73330
DIRECTV 9S              
1 29494U 06043A   26204.59223844 -.00000111  00000+0  00000+0 0  9994
2 29494   2.5119  80.4631 0005226  35.5449 297.3151  1.00271943 51747
GALAXY 17 (G-17)        
1 31307U 07016B   26204.80932477 -.00000204  00000+0  00000+0 0  9997
2 31307   3.0611  79.4390 0003566  35.7684  32.6684  1.00272122 70173
INTELSAT 11 (IS-11)     
1 32253U 07044B   26204.39182271 -.00000238  00000+0  00000+0 0  9999
2 32253   3.6568  78.2255 0004704  98.6762 231.9004  0.99051909 68800
HORIZONS-2              
1 32388U 07063B   26204.81157812 -.00000251  00000+0  00000+0 0  9994
2 32388   2.6936  80.1770 0003707  22.4176  57.3135  1.00271793 68181
DIRECTV 11              
1 32729U 08013A   26204.41273332 -.00000121  00000+0  00000+0 0  9997
2 32729   0.0121 275.8079 0000213 165.5207 269.2057  1.00272046 45955
GALAXY 18 (G-18)        
1 32951U 08024A   26204.73051448  .00000000  00000+0  00000+0 0  9998
2 32951   0.0219  58.8506 0003187  64.6556 317.9488  1.00269676 46217
GALAXY 19 (G-19)        
1 33376U 08045A   26204.59310512 -.00000134  00000+0  00000+0 0  9996
2 33376   0.0610 250.3488 0002744 244.1349 283.3488  1.00271745 65267
FM-5                    
1 35493U 09034A   26204.02496500 -.00000195  00000+0  00000+0 0  9994
2 35493   0.0406 259.5463 0000846 130.3836 193.6336  1.00269883 47001
INTELSAT 14 (IS-14)     
1 36097U 09064A   26204.81729815 -.00000268  00000+0  00000+0 0  9994
2 36097   0.0160  54.7645 0002603  68.4835  67.5178  1.00272462 60970
INTELSAT 15 (IS-15)     
1 36106U 09067A   26204.84306507 -.00000180  00000+0  00000+0 0  9993
2 36106   0.0136  60.9694 0002413  60.7225 208.5318  1.00272063 41591
DIRECTV 12              
1 36131U 09075A   26204.59197844 -.00000099  00000+0  00000+0 0  9993
2 36131   0.0116 230.1457 0000212 309.4204 232.1448  1.00272032 46914
INTELSAT 16 (IS-16)     
1 36397U 10006A   26204.81105812 -.00000240  00000+0  00000+0 0  9990
2 36397   0.0123  11.2162 0002160 107.8582  38.2446  1.00272124 60023
XM-5                    
1 37185U 10053A   26204.32590369 -.00000018  00000+0  00000+0 0  9992
2 37185   0.0616 262.9774 0001327 309.4997  90.7012  1.00271189 57842
INTELSAT 17 (IS-17)     
1 37238U 10065B   26204.83925171  .00000003  00000+0  00000+0 0  9996
2 37238   0.0188 101.7614 0002449  20.5500 187.3866  1.00272669 53610
INTELSAT 28 (IS-28)     
1 37392U 11016A   26204.81987750 -.00000222  00000+0  00000+0 0  9997
2 37392   1.8981  82.1771 0003994  42.4508  80.3640  1.00272290 53650
INTELSAT 18 (IS-18)     
1 37834U 11056A   26204.79051802  .00000058  00000+0  00000+0 0  9995
2 37834   0.0401 257.4959 0002032 234.4348 274.1642  1.00273006 54170
INTELSAT 22 (IS-22)     
1 38098U 12011A   26204.84046507 -.00000053  00000+0  00000+0 0  9998
2 38098   0.0060  13.2408 0002025 133.1037 169.8844  1.00271619  7555
INTELSAT 19 (IS-19)     
1 38356U 12030A   26204.78774468 -.00000051  00000+0  00000+0 0  9991
2 38356   0.0157  49.3741 0003139  70.1940 271.5317  1.00272102 50810
INTELSAT 20 (IS-20)     
1 38740U 12043A   26204.83977174 -.00000019  00000+0  00000+0 0  9991
2 38740   0.0144  80.5248 0001306 104.9836 126.8780  1.00272139 51116
INTELSAT 21 (IS-21)     
1 38749U 12045A   26204.81469814 -.00000280  00000+0  00000+0 0  9997
2 38749   0.0315 268.1294 0001950 224.6626  44.0352  1.00270568 50896
INTELSAT 23 (IS-23)     
1 38867U 12057A   26204.81565147 -.00000280  00000+0  00000+0 0  9997
2 38867   0.0202 310.4150 0000277 228.4039   3.3362  1.00269114 50327
FM-6                    
1 39360U 13058A   26204.73181448 -.00000011  00000+0  00000+0 0  9999
2 39360   0.0110  29.6414 0000841 154.7712 264.1406  1.00275985 46449
INTELSAT 30 (IS-30)     
1 40271U 14062A   26204.51712506 -.00000146  00000+0  00000+0 0  9998
2 40271   0.0173  55.5052 0001759 339.9637 356.8933  1.00271330  7158
DIRECTV 14              
1 40333U 14078B   26204.35376696 -.00000121  00000+0  00000+0 0  9995
2 40333   0.0097  46.3610 0000642 353.0609 289.7825  1.00272581 42406
DIRECTV 15              
1 40663U 15026A   26204.59197844 -.00000097  00000+0  00000+0 0  9999
2 40663   0.0240  80.3848 0000425 323.3244   7.8425  1.00270533 40821
SKY MEXICO-1            
1 40664U 15026B   26204.81045145 -.00000229  00000+0  00000+0 0  9998
2 40664   0.0138 355.1799 0002735 136.7841  22.5299  1.00271034 40821
INTELSAT 34 (IS-34)     
1 40874U 15039A   26204.81513147 -.00000280  00000+0  00000+0 0  9994
2 40874   0.0094  20.5051 0000604  23.3416 135.6443  1.00270371 40001
INTELSAT 31 (IS-31)     
1 41581U 16035A   26204.59345177 -.00000146  00000+0  00000+0 0  9999
2 41581   0.0108 300.3107 0000948  16.9671 102.6366  1.00270098 37040
INTELSAT 36 (IS-36)     
1 41747U 16053A   26204.83977174 -.00000019  00000+0  00000+0 0  9997
2 41747   0.0119  41.4835 0002181 311.1547 319.7375  1.00272535 36329
INTELSAT 32E (IS-32E)   
1 41945U 17007B   26204.74628787  .00000000  00000+0  00000+0 0  9999
2 41945   0.0222  52.4804 0000495 357.9690 116.5083  1.00270146 34597
INTELSAT 35E (IS-35E)   
1 42818U 17041A   26204.74802123 -.00000233  00000+0  00000+0 0  9994
2 42818   0.0176  62.0653 0002153  57.1391  57.0588  1.00271451 33187
INTELSAT 37E (IS-37E)   
1 42950U 17059A   26204.82265086  .00000000  00000+0  00000+0 0  9991
2 42950   0.0244  58.6805 0003113  71.7110  89.3230  1.00270312 32432
AZERSPACE 2 (IS-38)     
1 43632U 18074A   26204.35669890  .00000141  00000+0  00000+0 0  9992
2 43632   0.0174  47.4997 0001318  54.2391  12.8730  1.00269800 28815
HORIZONS-3E             
1 43633U 18074B   26204.57447168 -.00000026  00000+0  00000+0 0  9992
2 43633   0.0322 239.3133 0000315  79.1148 358.6734  1.00272034 28703
AT&T T-16               
1 44333U 19034A   26204.09332698 -.00000111  00000+0  00000+0 0  9990
2 44333   0.0154  76.6092 0000631 292.9337 224.0216  1.00273461 25990
INTELSAT 39 (IS-39)     
1 44476U 19049B   26204.76711792  .00000000  00000+0  00000+0 0  9990
2 44476   0.0221  55.4483 0000594 320.7391 263.4215  1.00271086 25492
GALAXY 30 (G-30)        
1 46114U 20056C   26204.51629133  .00000042  00000+0  00000+0 0  9997
2 46114   0.0142  37.0549 0002323  82.3407 242.7034  1.00270548 21650
GALAXY 33 (G-33)        
1 54026U 22128A   26204.60232295  .00000084  00000+0  00000+0 0  9995
2 54026   0.0156  17.2912 0002041  96.7538 271.1186  1.00271354 14103
GALAXY 34 (G-34)        
1 54027U 22128B   26204.60278126  .00000064  00000+0  00000+0 0  9997
2 54027   0.0094  46.7893 0001756  69.9013 272.6376  1.00271652 14278
GALAXY 31 (G-31)        
1 54243U 22153A   26204.60934703  .00000000  00000+0  00000+0 0  9995
2 54243   0.0184  69.6315 0001516  54.6669 275.4098  1.00270196  7493
GALAXY 32 (G-32)        
1 54244U 22153B   26204.80802477 -.00000169  00000+0  00000+0 0  9997
2 54244   0.0100  52.5893 0001524   6.5204  82.3183  1.00272150 13516
GALAXY 35 (G-35)        
1 54741U 22170A   26204.80776477  .00000000  00000+0  00000+0 0  9991
2 54741   0.0145  62.0636 0002177  60.1841  16.9816  1.00269646 13260
GALAXY 36 (G-36)        
1 54742U 22170B   26204.80845810 -.00000180  00000+0  00000+0 0  9990
2 54742   0.0227 121.2277 0002796 340.0494  42.3022  1.00272077 13143
GALAXY 37 (G-37)        
1 57493U 23112A   26204.60416300  .00000053  00000+0  00000+0 0  9997
2 57493   0.0150  65.8309 0002137  49.6886 276.3119  1.00271728 10908
